{"fetchedAt":"2026-07-12T17:31:58.883Z","count":1012,"source":"space-track","tles":[{"name":"TIANLIAN 2-01","line1":"1 44076U 19017A   26193.50694683 -.00000106  00000-0  00000+0 0  9998","line2":"2 44076   0.6027  83.0589 0001435  80.5611  26.2989  1.00270818 26905","norad":44076},{"name":"EMISAT","line1":"1 44078U 19018A   26193.51140242  .00000231  00000-0  80924-4 0  9995","line2":"2 44078  98.4641 252.1708 0019206 138.8082 221.4562 14.43649046383715","norad":44078},{"name":"BEIDOU 3 IGSO-1","line1":"1 44204U 19023A   26193.48865076 -.00000205  00000-0  00000+0 0  9991","line2":"2 44204  58.7307  37.3896 0025674 224.1023 323.8830  1.00283752  7462","norad":44204},{"name":"TIANHUI 2-01A","line1":"1 44207U 19024A   26188.54483793  .00001397  00000-0  74499-4 0  9998","line2":"2 44207  97.4802 192.2117 0001332  92.0180 268.1206 15.16801229105221","norad":44207},{"name":"TIANHUI 2-01B","line1":"1 44209U 19024C   26188.54483914  .00001399  00000-0  74599-4 0  9998","line2":"2 44209  97.4802 192.2078 0001848  81.8973 278.2470 15.16801144397793","norad":44209},{"name":"BEIDOU 2 G8","line1":"1 44231U 19027A   26193.52020729 -.00000248  00000-0  00000+0 0  9995","line2":"2 44231   1.7186  74.5038 0009778 282.5050 265.1960  1.00272558 26332","norad":44231},{"name":"RISAT 2B","line1":"1 44233U 19028A   26193.48605538  .00001049  00000-0  86674-4 0  9995","line2":"2 44233  36.9958 204.0476 0008775 242.8759 117.1089 15.01076934391630","norad":44233},{"name":"COSMOS 2534 (GLONASS)","line1":"1 44299U 19030A   26193.34530384  .00000095  00000-0  00000+0 0  9995","line2":"2 44299  64.3707 191.7692 0013534 274.9561  84.6521  2.13102039 55458","norad":44299},{"name":"OBJECT C","line1":"1 44312U 19032C   26193.50020398  .00005515  00000-0  17833-3 0  9998","line2":"2 44312  44.9729 217.5664 0004692  84.2828 275.8592 15.33155930391720","norad":44312},{"name":"OBJECT E","line1":"1 44314U 19032E   26193.48392353  .00008004  00000-0  20845-3 0  9993","line2":"2 44314  44.9985 199.1871 0007344 110.9936 249.1738 15.39408430391970","norad":44314},{"name":"RCM 1","line1":"1 44322U 19033A   26193.50517381  .00000243  00000-0  29028-4 0  9996","line2":"2 44322  97.7602 200.5940 0001546  92.8625  67.1930 14.92591634385855","norad":44322},{"name":"RCM 3","line1":"1 44323U 19033B   26193.49800976  .00000173  00000-0  22245-4 0  9996","line2":"2 44323  97.7602 200.6812 0001518  89.8045 270.3348 14.92589259385879","norad":44323},{"name":"RCM 2","line1":"1 44324U 19033C   26193.45317330 -.00000095  00000-0 -38199-5 0  9991","line2":"2 44324  97.7602 200.5876 0001485  90.6480 269.4910 14.92590076385856","norad":44324},{"name":"BEIDOU 3 IGSO-2","line1":"1 44337U 19035A   26193.53494701 -.00000117  00000-0  00000+0 0  9992","line2":"2 44337  55.2505 158.6408 0039614 216.5409 226.4924  1.00258352 25920","norad":44337},{"name":"NPSAT1","line1":"1 44340U 19036B   26192.95112662  .00003266  00000-0  44068-3 0  9998","line2":"2 44340  23.9992  56.4427 0007528 131.1108 229.0039 14.74804468376159","norad":44340},{"name":"FORMOSAT7-3/COSMIC2-3","line1":"1 44343U 19036E   26193.56034507  .00002776  00000-0  14580-3 0  9991","line2":"2 44343  24.0004   3.8842 0000411 187.8054 172.2443 15.09982287387084","norad":44343},{"name":"DSX","line1":"1 44344U 19036F   26192.62060555 -.00000045  00000-0  00000-0 0  9997","line2":"2 44344  42.3250 341.7673 1967137  26.3373 342.4753  4.54373226116907","norad":44344},{"name":"FORMOSAT7-1/COSMIC2-1","line1":"1 44349U 19036L   26193.38348105  .00001367  00000-0  91205-4 0  9994","line2":"2 44349  23.9966 222.5156 0001059 107.3365 252.7251 14.96605914388439","norad":44349},{"name":"FORMOSAT7-4/COSMIC2-4","line1":"1 44350U 19036M   26193.53941297  .00001470  00000-0  10002-3 0  9994","line2":"2 44350  23.9982 283.5741 0001351 117.3722 242.6916 14.96604219387879","norad":44350},{"name":"FORMOSAT7-2/COSMIC2-2","line1":"1 44351U 19036N   26193.49510472  .00001593  00000-0  11053-3 0  9990","line2":"2 44351  24.0002 338.1869 0000859 106.2196 253.8399 14.96603210387382","norad":44351},{"name":"FORMOSAT7-6/COSMIC2-6","line1":"1 44353U 19036Q   26193.22799999  .00001523  00000-0  10449-3 0  9997","line2":"2 44353  23.9964 160.7962 0001246  45.8851 314.1752 14.96605816385576","norad":44353},{"name":"FORMOSAT7-5/COSMIC2-5","line1":"1 44358U 19036V   26193.00538351  .00001610  00000-0  11211-3 0  9996","line2":"2 44358  23.9982 101.0484 0000490 115.9872 244.0679 14.96584241386073","norad":44358},{"name":"METEOR M2-2","line1":"1 44387U 19038A   26193.53323031  .00000009  00000-0  23912-4 0  9998","line2":"2 44387  98.9155 181.1938 0000922   9.5583 350.5613 14.24372257364901","norad":44387},{"name":"COSMOS 2535","line1":"1 44421U 19039A   26193.49380190  .00000753  00000-0  79536-4 0  9991","line2":"2 44421  97.5753 220.6880 0009655 122.9729 237.2420 14.91992605380418","norad":44421},{"name":"COSMOS 2538","line1":"1 44424U 19039D   26193.50295618  .00002891  00000-0  13100-3 0  9995","line2":"2 44424  97.5879 273.0771 0040498 317.7419  42.0697 15.20984399383753","norad":44424},{"name":"YAOGAN-30 N","line1":"1 44449U 19045A   26193.41991947  .00001425  00000-0  10651-3 0  9997","line2":"2 44449  34.9919 176.2849 0003148 150.9355 209.1529 15.02803197380413","norad":44449},{"name":"YAOGAN-30 P","line1":"1 44450U 19045B   26193.39740826  .00001271  00000-0  95167-4 0  9999","line2":"2 44450  34.9912 175.9506 0009098 292.4160  67.5585 15.02804407380457","norad":44450},{"name":"YAOGAN-30 Q","line1":"1 44451U 19045C   26193.37435175  .00001252  00000-0  93890-4 0  9996","line2":"2 44451  34.9923 175.9805 0001059 247.6216 112.4380 15.02791412380347","norad":44451},{"name":"MERIDIAN 8","line1":"1 44453U 19046A   26192.14652809 -.00000073  00000-0  00000-0 0  9996","line2":"2 44453  63.1537  47.6739 7081044 274.9209  14.5988  2.00596686 50822","norad":44453},{"name":"COSMOS 2539","line1":"1 44457U 19048A   26193.35143272  .00000082  00000-0  00000+0 0  9993","line2":"2 44457   0.0351 100.0637 0000298  24.3135 304.3716  1.00270503 25479","norad":44457},{"name":"AMOS 17","line1":"1 44479U 19050A   26193.28119221  .00000111  00000-0  00000+0 0  9992","line2":"2 44479   0.0154   1.9401 0001280 116.2153 290.2293  1.00272365 25432","norad":44479},{"name":"AEHF 5 (USA 292)","line1":"1 44481U 19051A   26193.50998940 -.00000255  00000-0  00000+0 0  9994","line2":"2 44481   1.4337 338.1790 0065003 357.7280 231.1215  1.00274594 25518","norad":44481},{"name":"NAVSTAR 78 (USA 293)","line1":"1 44506U 19056A   26193.36584550 -.00000089  00000-0  00000+0 0  9994","line2":"2 44506  55.6235 330.1426 0063319 198.1269  10.0581  2.00569838 50577","norad":44506},{"name":"COSMOS 2540","line1":"1 44517U 19057A   26193.52995100  .00000011  00000-0  47856-4 0  9991","line2":"2 44517  99.2053 204.6523 0016730 102.3257 257.9773 13.85951814347380","norad":44517},{"name":"KX-09","line1":"1 44520U 19058B   26193.52366862  .00001698  00000-0  15367-3 0  9996","line2":"2 44520  97.7767 206.6789 0008293 257.6548 102.3745 14.96730122373827","norad":44520},{"name":"ZY-1 02D","line1":"1 44528U 19059A   26193.51316002  .00000247  00000-0  10206-3 0  9991","line2":"2 44528  98.6720 255.0558 0003221 309.9847  50.1055 14.35268491357975","norad":44528},{"name":"BEIDOU 3M23","line1":"1 44542U 19061A   26192.94232091  .00000085  00000-0  00000-0 0  9999","line2":"2 44542  54.3976 181.8931 0008596 359.4413   0.5552  1.86229198 46253","norad":44542},{"name":"BEIDOU 3M24","line1":"1 44543U 19061B   26193.33973266  .00000078  00000-0  00000+0 0  9991","line2":"2 44543  54.3961 181.8481 0005886 340.0484 197.8273  1.86227274 46265","norad":44543},{"name":"COSMOS 2541","line1":"1 44552U 19065A   26193.19537056  .00000197  00000-0  00000-0 0  9995","line2":"2 44552  62.7141 154.6310 6496006 272.0987  20.3106  2.00603440 49722","norad":44552},{"name":"GAOFEN 10R","line1":"1 44622U 19066A   26193.52254672  .00000605  00000-0  81119-4 0  9999","line2":"2 44622  98.0514 147.2876 0006983  59.9776 300.2129 14.83053761366135","norad":44622},{"name":"ICON","line1":"1 44628U 19068A   26193.39381794  .00001854  00000-0  10506-3 0  9996","line2":"2 44628  26.9826 214.7472 0013737 132.6716 227.5004 15.07106165369845","norad":44628},{"name":"TJS-4","line1":"1 44637U 19070A   26193.00923439 -.00000166  00000-0  00000-0 0  9996","line2":"2 44637   0.0757  87.0276 0003206 320.5648 329.1697  1.00269536 24784","norad":44637},{"name":"GAOFEN 7","line1":"1 44703U 19072A   26193.52139028  .00002186  00000-0  10003-3 0  9992","line2":"2 44703  97.5711 254.2405 0017580 314.0377  45.9409 15.21502804371491","norad":44703},{"name":"BEIDOU 3 IGSO-3","line1":"1 44709U 19073A   26136.81046384 -.00000217  00000-0  00000-0 0  9997","line2":"2 44709  54.8566 281.2355 0042953 189.4588 170.3676  1.00246251 24144","norad":44709},{"name":"BEIDOU 3M21","line1":"1 44793U 19078A   26192.24557439 -.00000063  00000-0  00000-0 0  9991","line2":"2 44793  53.9127 298.9816 0005741  49.9615 310.1118  1.86227377 45096","norad":44793},{"name":"BEIDOU 3M22","line1":"1 44794U 19078B   26189.16367219 -.00000063  00000-0  00000-0 0  9994","line2":"2 44794  53.8889 299.0507 0003791  48.5315 311.5256  1.86228045 45041","norad":44794},{"name":"TIBA-1","line1":"1 44800U 19080A   26193.49871345  .00000157  00000-0  00000+0 0  9998","line2":"2 44800   0.0508   7.8709 0001835 118.0143  19.5229  1.00269365 24317","norad":44800},{"name":"CARTOSAT 3","line1":"1 44804U 19081A   26193.51465497  .00002958  00000-0  14303-3 0  9999","line2":"2 44804  97.4297 254.9728 0013248  69.4272 290.8383 15.19313135367310","norad":44804},{"name":"GAOFEN 12","line1":"1 44819U 19082A   26193.49259616  .00000194  00000-0  32009-4 0  9991","line2":"2 44819  97.8107 199.2048 0001107  53.2044 306.9270 14.80478328357838","norad":44819},{"name":"COSMOS 2544 (GLONASS)","line1":"1 44850U 19088A   26192.43092138 -.00000019  00000-0  00000-0 0  9998","line2":"2 44850  65.5781  72.9223 0012344 255.3717 104.5561  2.13103003 51230","norad":44850}]}
